API VERSION: 1.2
API SOURCE: NASA/JPL Horizons API

*******************************************************************************
 Revised: September 25, 2025           Uranus                               799
 
 PHYSICAL DATA:
  Mass x10^24 (kg)      = 86.813          Density (g/cm^3)       =  1.271
  Equat. radius (1 bar) = 25559+-4 km     Polar radius (km)      = 24973+-20
  Vol. Mean Radius (km) = 25362+-12       Flattening             =  0.02293
  Geometric Albedo      = 0.51
  Sid. rot. period (III)= 17.24+-0.01 h   Sid. rot. rate (rad/s) = -0.000101237
  Mean solar day, h     =~17.24           Rocky core mass (Mc/M) =  0.0012        
  GM (km^3/s^2)         = 5793950.6103    GM 1-sigma (km^3/s^2)  = +-4.3 
  Equ. grav, ge (m/s^2) =  8.87           Pol. grav, gp (m/s^2)  =   9.19+-0.02
  Visual magnitude V(1,0)= -7.11
  Vis. mag. (opposition)=  +5.52          Obliquity to orbit     = 97.77 deg
  Sidereal orbit period = 84.0120465 y    Sidereal orbit period  = 30685.4 d
  Mean daily motion     = 0.01176904 dg/d Mean orbit velocity    =  6.8 km/s
  Atmos. temp. (1 bar)  =  76+-2 K        Escape speed, km/s     =  21.3           
  Aroche(ice)/Rp        =  2.20           Hill's sphere rad., Rp = 2700
                                 Perihelion   Aphelion    Mean
  Solar Constant (W/m^2)         4.09         3.39        3.71
  Maximum Planetary IR (W/m^2)   0.72         0.55        0.63
  Minimum Planetary IR (W/m^2)   0.72         0.55        0.63
*******************************************************************************


*******************************************************************************
Ephemeris / API_USER Thu Feb 19 13:06:59 2026 Pasadena, USA      / Horizons
*******************************************************************************
Target body name: Uranus (799)                    {source: ura184_merged}
Center body name: Earth (399)                     {source: DE441}
Center-site name: BODY CENTER
*******************************************************************************
Start time      : A.D. 2052-Sep-21 01:03:00.0000 TDB
Stop  time      : A.D. 2052-Sep-24 01:03:00.0000 TDB
Step-size       : 60 minutes
*******************************************************************************
Center geodetic : 0.0, 0.0, 0.0                   {E-lon(deg),Lat(deg),Alt(km)}
Center cylindric: 0.0, 0.0, 0.0                   {E-lon(deg),Dxy(km),Dz(km)}
Center radii    : 6378.137, 6378.137, 6356.752 km {Equator_a, b, pole_c}
Output units    : AU-D
Calendar mode   : Mixed Julian/Gregorian
Output type     : GEOMETRIC cartesian states
Output format   : 3 (position, velocity, LT, range, range-rate)
EOP file        : eop.260218.p260517
EOP coverage    : DATA-BASED 1962-JAN-20 TO 2026-FEB-18. PREDICTS-> 2026-MAY-16
Reference frame : Ecliptic of J2000.0
*******************************************************************************
JDTDB
   X     Y     Z
   VX    VY    VZ
   LT    RG    RR
*******************************************************************************
$$SOE
2470801.543750000 = A.D. 2052-Sep-21 01:03:00.0000 TDB 
 X =-1.929547103036922E+01 Y = 4.059398919551842E-02 Z = 2.368583850065420E-01
 VX=-3.415673791817574E-04 VY=-2.125952206645807E-02 VZ=-1.227392477024226E-05
 LT= 1.114499891414646E-01 RG= 1.929696743144696E+01 RR= 2.966677276723277E-04
2470801.585416667 = A.D. 2052-Sep-21 02:03:00.0000 TDB 
 X =-1.929548500563458E+01 Y = 3.970816649486095E-02 Z = 2.368578736177195E-01
 VX=-3.292452462861324E-04 VY=-2.125996600396227E-02 VZ=-1.227271939612744E-05
 LT= 1.114500591683550E-01 RG= 1.929697955622719E+01 RR= 2.853216243955490E-04
2470801.627083333 = A.D. 2052-Sep-21 03:03:00.0000 TDB 
 X =-1.929549846746372E+01 Y = 3.882232549193954E-02 Z = 2.368573622816111E-01
 VX=-3.169224398654817E-04 VY=-2.126040057537758E-02 VZ=-1.227139267819619E-05
 LT= 1.114501264647726E-01 RG= 1.929699120824069E+01 RR= 2.739749235903635E-04
2470801.668750000 = A.D. 2052-Sep-21 04:03:00.0000 TDB 
 X =-1.929551141582845E+01 Y = 3.793646657697624E-02 Z = 2.368568510034993E-01
 VX=-3.045989534277859E-04 VY=-2.126082578222838E-02 VZ=-1.226993373747770E-05
 LT= 1.114501910305726E-01 RG= 1.929700238746241E+01 RR= 2.626276173264329E-04
2470801.710416667 = A.D. 2052-Sep-21 05:03:00.0000 TDB 
 X =-1.929552385070032E+01 Y = 3.705059014012949E-02 Z = 2.368563397891253E-01
 VX=-2.922747812051285E-04 VY=-2.126124162602712E-02 VZ=-1.226833131663539E-05
 LT= 1.114502528656083E-01 RG= 1.929701309386696E+01 RR= 2.512796984024285E-04
2470801.752083333 = A.D. 2052-Sep-21 06:03:00.0000 TDB 
 X =-1.929553577205063E+01 Y = 3.616469657149730E-02 Z = 2.368558286447177E-01
 VX=-2.799499182198177E-04 VY=-2.126164810813945E-02 VZ=-1.226657322488037E-05
 LT= 1.114503119697316E-01 RG= 1.929702332742868E+01 RR= 2.399311604192094E-04
2470801.793750000 = A.D. 2052-Sep-21 07:03:00.0000 TDB 
 X =-1.929554717985052E+01 Y = 3.527878626112509E-02 Z = 2.368553175770386E-01
 VX=-2.676243601192617E-04 VY=-2.126204522972554E-02 VZ=-1.226464597903982E-05
 LT= 1.114503683427929E-01 RG= 1.929703308812165E+01 RR= 2.285819976191832E-04
2470801.835416667 = A.D. 2052-Sep-21 08:03:00.0000 TDB 
 X =-1.929555807407093E+01 Y = 3.439285959901356E-02 Z = 2.368548065934408E-01
 VX=-2.552981027170962E-04 VY=-2.126243299178956E-02 VZ=-1.226253475859150E-05
 LT= 1.114504219846409E-01 RG= 1.929704237591972E+01 RR= 2.172322044278776E-04
2470801.877083333 = A.D. 2052-Sep-21 09:03:00.0000 TDB 
 X =-1.929556845468263E+01 Y = 3.350691697512176E-02 Z = 2.368542957019163E-01
 VX=-2.429711411882618E-04 VY=-2.126281139536767E-02 VZ=-1.226022379647604E-05
 LT= 1.114504728951233E-01 RG= 1.929705119079651E+01 RR= 2.058817746439194E-04
2470801.918750000 = A.D. 2052-Sep-21 10:03:00.0000 TDB 
 X =-1.929557832165615E+01 Y = 3.262095877935924E-02 Z = 2.368537849111184E-01
 VX=-2.306434688883878E-04 VY=-2.126318044187819E-02 VZ=-1.225769731779494E-05
 LT= 1.114505210740861E-01 RG= 1.929705953272532E+01 RR= 1.945307002464117E-04
2470801.960416667 = A.D. 2052-Sep-21 11:03:00.0000 TDB 
 X =-1.929558767496169E+01 Y = 3.173498540155963E-02 Z = 2.368532742303322E-01
 VX=-2.183150758072352E-04 VY=-2.126354013364471E-02 VZ=-1.225494110888418E-05
 LT= 1.114505665213728E-01 RG= 1.929706740167909E+01 RR= 1.831789698284938E-04
2470802.002083333 = A.D. 2052-Sep-21 12:03:00.0000 TDB 
 X =-1.929559651456892E+01 Y = 3.084899723142927E-02 Z = 2.368527636693645E-01
 VX=-2.059859467271822E-04 VY=-2.126389047458105E-02 VZ=-1.225194474292370E-05
 LT= 1.114506092368237E-01 RG= 1.929707479763014E+01 RR= 1.718265667278208E-04
2470802.043750000 = A.D. 2052-Sep-21 13:03:00.0000 TDB 
 X =-1.929560484044673E+01 Y = 2.996299465846441E-02 Z = 2.368522532383301E-01
 VX=-1.936560592468492E-04 VY=-2.126423147099404E-02 VZ=-1.224870439579229E-05
 LT= 1.114506492202742E-01 RG= 1.929708172054998E+01 RR= 1.604734670149879E-04
2470802.085416667 = A.D. 2052-Sep-21 14:03:00.0000 TDB 
 X =-1.929561265256289E+01 Y = 2.907697807183430E-02 Z = 2.368517429473099E-01
 VX=-1.813253819539380E-04 VY=-2.126456313241282E-02 VZ=-1.224522604740398E-05
 LT= 1.114506864715527E-01 RG= 1.929708817040893E+01 RR= 1.491196376266446E-04
2470802.127083333 = A.D. 2052-Sep-21 15:03:00.0000 TDB 
 X =-1.929561995088368E+01 Y = 2.819094786023127E-02 Z = 2.368512328058756E-01
 VX=-1.689938731984459E-04 VY=-2.126488547228839E-02 VZ=-1.224152866664083E-05
 LT= 1.114507209904789E-01 RG= 1.929709414717572E+01 RR= 1.377650350995947E-04
2470802.168750000 = A.D. 2052-Sep-21 16:03:00.0000 TDB 
 X =-1.929562673537340E+01 Y = 2.730490441169880E-02 Z = 2.368507228224923E-01
 VX=-1.566614811369479E-04 VY=-2.126519850832033E-02 VZ=-1.223764670781675E-05
 LT= 1.114507527768602E-01 RG= 1.929709965081704E+01 RR= 1.264096055850613E-04
2470802.210416667 = A.D. 2052-Sep-21 17:03:00.0000 TDB 
 X =-1.929563300599401E+01 Y = 2.641884811345984E-02 Z = 2.368502130038491E-01
 VX=-1.443281460014660E-04 VY=-2.126550226205431E-02 VZ=-1.223363088677544E-05
 LT= 1.114507818304905E-01 RG= 1.929710468129717E+01 RR= 1.150532871095755E-04
2470802.252083333 = A.D. 2052-Sep-21 18:03:00.0000 TDB 
 X =-1.929563876270494E+01 Y = 2.553277935178467E-02 Z = 2.368497033542179E-01
 VX=-1.319938059048003E-04 VY=-2.126579675724879E-02 VZ=-1.222954573588846E-05
 LT= 1.114508081511478E-01 RG= 1.929710923857773E+01 RR= 1.036960154130664E-04
2470802.293750000 = A.D. 2052-Sep-21 19:03:00.0000 TDB 
 X =-1.929564400546314E+01 Y = 2.464669851196512E-02 Z = 2.368491938750165E-01
 VX=-1.196584079420077E-04 VY=-2.126608201632665E-02 VZ=-1.222546183714523E-05
 LT= 1.114508317385960E-01 RG= 1.929711332261777E+01 RR= 9.233773514989858E-05
2470802.335416667 = A.D. 2052-Sep-21 20:03:00.0000 TDB 
 X =-1.929564873422386E+01 Y = 2.376060597849111E-02 Z = 2.368486845648546E-01
 VX=-1.073219269006805E-04 VY=-2.126635805399911E-02 VZ=-1.222143987634560E-05
 LT= 1.114508525925881E-01 RG= 1.929711693337456E+01 RR= 8.097841880079909E-05
2470802.377083333 = A.D. 2052-Sep-21 21:03:00.0000 TDB 
 X =-1.929565294894239E+01 Y = 2.287450213557210E-02 Z = 2.368481754204786E-01
 VX=-9.498439456840007E-05 VY=-2.126662486686922E-02 VZ=-1.221750272030458E-05
 LT= 1.114508707128768E-01 RG= 1.929712007080531E+01 RR= 6.961809633079009E-05
2470802.418750000 = A.D. 2052-Sep-21 22:03:00.0000 TDB 
 X =-1.929565664957724E+01 Y = 2.198838736820173E-02 Z = 2.368476664392126E-01
 VX=-8.264594344393744E-05 VY=-2.126688241748061E-02 VZ=-1.221359056084348E-05
 LT= 1.114508860992334E-01 RG= 1.929712273487037E+01 RR= 5.825689946047833E-05
2470802.460416667 = A.D. 2052-Sep-21 23:03:00.0000 TDB 
 X =-1.929565983609558E+01 Y = 2.110226206403550E-02 Z = 2.368471576237300E-01
 VX=-7.030686964141909E-05 VY=-2.126713061086405E-02 VZ=-1.220949275804811E-05
 LT= 1.114508987514791E-01 RG= 1.929712492553880E+01 RR= 4.689512541775573E-05
